[{"OBJECT_NAME":"STARLINK-2486","OBJECT_ID":"2021-027BD","EPOCH":"2026-03-11T08:19:22.777824","MEAN_MOTION":15.30197159,"ECCENTRICITY":0.0001464,"INCLINATION":53.1596,"RA_OF_ASC_NODE":93.3416,"ARG_OF_PERICENTER":75.2755,"MEAN_ANOMALY":284.8408,"EPHEMERIS_TYPE":0,"CLASSIFICATION_TYPE":"U","NORAD_CAT_ID":48143,"ELEMENT_SET_NO":999,"REV_AT_EPOCH":27366,"BSTAR":0.00035858,"MEAN_MOTION_DOT":0.00010275,"MEAN_MOTION_DDOT":0},{"OBJECT_NAME":"STARLINK-2487","OBJECT_ID":"2021-027BE","EPOCH":"2026-03-11T12:00:02.998944","MEAN_MOTION":15.13376769,"ECCENTRICITY":0.0001038,"INCLINATION":53.0832,"RA_OF_ASC_NODE":143.405,"ARG_OF_PERICENTER":67.0714,"MEAN_ANOMALY":334.2479,"EPHEMERIS_TYPE":0,"CLASSIFICATION_TYPE":"U","NORAD_CAT_ID":48144,"ELEMENT_SET_NO":999,"REV_AT_EPOCH":556,"BSTAR":0.075579,"MEAN_MOTION_DOT":0.01497403,"MEAN_MOTION_DDOT":0},{"OBJECT_NAME":"STARLINK-2488","OBJECT_ID":"2021-027BF","EPOCH":"2026-03-11T12:00:02.998944","MEAN_MOTION":15.95449236,"ECCENTRICITY":0.0003961,"INCLINATION":53.0373,"RA_OF_ASC_NODE":98.79,"ARG_OF_PERICENTER":61.9883,"MEAN_ANOMALY":113.5212,"EPHEMERIS_TYPE":0,"CLASSIFICATION_TYPE":"U","NORAD_CAT_ID":48145,"ELEMENT_SET_NO":999,"REV_AT_EPOCH":596,"BSTAR":0.0014243,"MEAN_MOTION_DOT":0.00577618,"MEAN_MOTION_DDOT":0.00014909},{"OBJECT_NAME":"STARLINK-2491","OBJECT_ID":"2021-027BJ","EPOCH":"2026-03-11T11:27:01.413216","MEAN_MOTION":15.30208996,"ECCENTRICITY":0.0001262,"INCLINATION":53.161,"RA_OF_ASC_NODE":157.1327,"ARG_OF_PERICENTER":73.9761,"MEAN_ANOMALY":286.1379,"EPHEMERIS_TYPE":0,"CLASSIFICATION_TYPE":"U","NORAD_CAT_ID":48148,"ELEMENT_SET_NO":999,"REV_AT_EPOCH":27277,"BSTAR":0.00027033,"MEAN_MOTION_DOT":7.658e-5,"MEAN_MOTION_DDOT":0},{"OBJECT_NAME":"STARLINK-2492","OBJECT_ID":"2021-027BK","EPOCH":"2026-03-11T12:00:02.998944","MEAN_MOTION":15.14957944,"ECCENTRICITY":0.0002023,"INCLINATION":53.0909,"RA_OF_ASC_NODE":143.3627,"ARG_OF_PERICENTER":85.237,"MEAN_ANOMALY":80.3927,"EPHEMERIS_TYPE":0,"CLASSIFICATION_TYPE":"U","NORAD_CAT_ID":48149,"ELEMENT_SET_NO":999,"REV_AT_EPOCH":582,"BSTAR":0.071778,"MEAN_MOTION_DOT":0.01485058,"MEAN_MOTION_DDOT":0},{"OBJECT_NAME":"STARLINK-2493","OBJECT_ID":"2021-027BL","EPOCH":"2026-03-11T12:00:02.998944","MEAN_MOTION":15.15323507,"ECCENTRICITY":0.0002029,"INCLINATION":53.092,"RA_OF_ASC_NODE":143.3326,"ARG_OF_PERICENTER":83.5113,"MEAN_ANOMALY":78.4837,"EPHEMERIS_TYPE":0,"CLASSIFICATION_TYPE":"U","NORAD_CAT_ID":48150,"ELEMENT_SET_NO":999,"REV_AT_EPOCH":582,"BSTAR":0.064492,"MEAN_MOTION_DOT":0.01335451,"MEAN_MOTION_DDOT":0},{"OBJECT_NAME":"STARLINK-2503","OBJECT_ID":"2021-027BM","EPOCH":"2026-03-11T12:00:02.998944","MEAN_MOTION":15.1394853,"ECCENTRICITY":0.0002328,"INCLINATION":53.0839,"RA_OF_ASC_NODE":143.365,"ARG_OF_PERICENTER":66.4877,"MEAN_ANOMALY":57.4552,"EPHEMERIS_TYPE":0,"CLASSIFICATION_TYPE":"U","NORAD_CAT_ID":48151,"ELEMENT_SET_NO":999,"REV_AT_EPOCH":582,"BSTAR":0.0037007,"MEAN_MOTION_DOT":0.0006822,"MEAN_MOTION_DDOT":0},{"OBJECT_NAME":"STARLINK-2567","OBJECT_ID":"2021-036A","EPOCH":"2026-03-11T07:58:29.640000","MEAN_MOTION":15.06394923,"ECCENTRICITY":0.0001354,"INCLINATION":53.0566,"RA_OF_ASC_NODE":39.2441,"ARG_OF_PERICENTER":102.2366,"MEAN_ANOMALY":257.8775,"EPHEMERIS_TYPE":0,"CLASSIFICATION_TYPE":"U","NORAD_CAT_ID":48276,"ELEMENT_SET_NO":999,"REV_AT_EPOCH":26905,"BSTAR":0.00016631,"MEAN_MOTION_DOT":2.196e-5,"MEAN_MOTION_DDOT":0},{"OBJECT_NAME":"STARLINK-2569","OBJECT_ID":"2021-036B","EPOCH":"2026-03-11T12:00:02.998944","MEAN_MOTION":15.23860526,"ECCENTRICITY":0.0001673,"INCLINATION":53.128,"RA_OF_ASC_NODE":2.6258,"ARG_OF_PERICENTER":100.3618,"MEAN_ANOMALY":200.526,"EPHEMERIS_TYPE":0,"CLASSIFICATION_TYPE":"U","NORAD_CAT_ID":48277,"ELEMENT_SET_NO":999,"REV_AT_EPOCH":571,"BSTAR":-0.00078829,"MEAN_MOTION_DOT":-0.00019546,"MEAN_MOTION_DDOT":0},{"OBJECT_NAME":"STARLINK-2543","OBJECT_ID":"2021-036C","EPOCH":"2026-03-11T05:53:32.005248","MEAN_MOTION":15.30180521,"ECCENTRICITY":0.0001165,"INCLINATION":53.1624,"RA_OF_ASC_NODE":17.1758,"ARG_OF_PERICENTER":119.0442,"MEAN_ANOMALY":241.0676,"EPHEMERIS_TYPE":0,"CLASSIFICATION_TYPE":"U","NORAD_CAT_ID":48278,"ELEMENT_SET_NO":999,"REV_AT_EPOCH":26935,"BSTAR":0.00047314,"MEAN_MOTION_DOT":0.00013671,"MEAN_MOTION_DDOT":0},{"OBJECT_NAME":"STARLINK-2565","OBJECT_ID":"2021-036E","EPOCH":"2026-03-11T08:34:18.956640","MEAN_MOTION":15.06401375,"ECCENTRICITY":0.0001353,"INCLINATION":53.0551,"RA_OF_ASC_NODE":89.1332,"ARG_OF_PERICENTER":92.6397,"MEAN_ANOMALY":267.4747,"EPHEMERIS_TYPE":0,"CLASSIFICATION_TYPE":"U","NORAD_CAT_ID":48280,"ELEMENT_SET_NO":999,"REV_AT_EPOCH":26835,"BSTAR":4.4589e-5,"MEAN_MOTION_DOT":3.83e-6,"MEAN_MOTION_DDOT":0},{"OBJECT_NAME":"STARLINK-2558","OBJECT_ID":"2021-036G","EPOCH":"2026-03-11T06:22:30.730944","MEAN_MOTION":15.30172248,"ECCENTRICITY":9.72e-5,"INCLINATION":53.1609,"RA_OF_ASC_NODE":68.0565,"ARG_OF_PERICENTER":79.5094,"MEAN_ANOMALY":280.6016,"EPHEMERIS_TYPE":0,"CLASSIFICATION_TYPE":"U","NORAD_CAT_ID":48282,"ELEMENT_SET_NO":999,"REV_AT_EPOCH":26865,"BSTAR":-6.6157e-6,"MEAN_MOTION_DOT":-5.55e-6,"MEAN_MOTION_DDOT":0},{"OBJECT_NAME":"STARLINK-2516","OBJECT_ID":"2021-036H","EPOCH":"2026-03-11T12:32:36.516768","MEAN_MOTION":15.30199042,"ECCENTRICITY":0.000132,"INCLINATION":53.1601,"RA_OF_ASC_NODE":66.8564,"ARG_OF_PERICENTER":91.1309,"MEAN_ANOMALY":268.9843,"EPHEMERIS_TYPE":0,"CLASSIFICATION_TYPE":"U","NORAD_CAT_ID":48283,"ELEMENT_SET_NO":999,"REV_AT_EPOCH":26869,"BSTAR":0.00024336,"MEAN_MOTION_DOT":6.855e-5,"MEAN_MOTION_DDOT":0},{"OBJECT_NAME":"STARLINK-2564","OBJECT_ID":"2021-036J","EPOCH":"2026-03-11T08:43:39.619200","MEAN_MOTION":15.30202489,"ECCENTRICITY":0.0001728,"INCLINATION":53.1606,"RA_OF_ASC_NODE":68.0012,"ARG_OF_PERICENTER":82.1402,"MEAN_ANOMALY":277.9795,"EPHEMERIS_TYPE":0,"CLASSIFICATION_TYPE":"U","NORAD_CAT_ID":48284,"ELEMENT_SET_NO":999,"REV_AT_EPOCH":26865,"BSTAR":0.00024975,"MEAN_MOTION_DOT":7.045e-5,"MEAN_MOTION_DDOT":0},{"OBJECT_NAME":"STARLINK-2547","OBJECT_ID":"2021-036L","EPOCH":"2026-03-11T06:10:21.080352","MEAN_MOTION":15.30208938,"ECCENTRICITY":0.0001462,"INCLINATION":53.1619,"RA_OF_ASC_NODE":68.1723,"ARG_OF_PERICENTER":91.3968,"MEAN_ANOMALY":268.7201,"EPHEMERIS_TYPE":0,"CLASSIFICATION_TYPE":"U","NORAD_CAT_ID":48286,"ELEMENT_SET_NO":999,"REV_AT_EPOCH":26864,"BSTAR":1.5555e-5,"MEAN_MOTION_DOT":1.02e-6,"MEAN_MOTION_DDOT":0},{"OBJECT_NAME":"STARLINK-2566","OBJECT_ID":"2021-036M","EPOCH":"2026-03-11T07:07:18.759360","MEAN_MOTION":15.3020121,"ECCENTRICITY":0.0001183,"INCLINATION":53.1589,"RA_OF_ASC_NODE":70.3645,"ARG_OF_PERICENTER":81.7401,"MEAN_ANOMALY":278.3734,"EPHEMERIS_TYPE":0,"CLASSIFICATION_TYPE":"U","NORAD_CAT_ID":48287,"ELEMENT_SET_NO":999,"REV_AT_EPOCH":26861,"BSTAR":0.00033983,"MEAN_MOTION_DOT":9.719e-5,"MEAN_MOTION_DDOT":0},{"OBJECT_NAME":"STARLINK-2545","OBJECT_ID":"2021-036P","EPOCH":"2026-03-11T09:36:42.465600","MEAN_MOTION":15.30206824,"ECCENTRICITY":0.0001184,"INCLINATION":53.1604,"RA_OF_ASC_NODE":67.7296,"ARG_OF_PERICENTER":90.0562,"MEAN_ANOMALY":270.0575,"EPHEMERIS_TYPE":0,"CLASSIFICATION_TYPE":"U","NORAD_CAT_ID":48289,"ELEMENT_SET_NO":999,"REV_AT_EPOCH":26866,"BSTAR":0.00023529,"MEAN_MOTION_DOT":6.617e-5,"MEAN_MOTION_DDOT":0}]
