STARLINK-2486           
1 48143U 21027BD  26070.34679141  .00010275  00000+0  35858-3 0  9998
2 48143  53.1596  93.3416 0001464  75.2755 284.8408 15.30197159273662
STARLINK-2487           
1 48144U 21027BE  26070.50003471  .01497403  00000+0  75579-1 0  9999
2 48144  53.0832 143.4050 0001038  67.0714 334.2479 15.13376769  5564
STARLINK-2488           
1 48145U 21027BF  26070.50003471  .00577618  14909-3  14243-2 0  9995
2 48145  53.0373  98.7900 0003961  61.9883 113.5212 15.95449236  5965
STARLINK-2491           
1 48148U 21027BJ  26070.47709969  .00007658  00000+0  27033-3 0  9996
2 48148  53.1610 157.1327 0001262  73.9761 286.1379 15.30208996272777
STARLINK-2492           
1 48149U 21027BK  26070.50003471  .01485058  00000+0  71778-1 0  9994
2 48149  53.0909 143.3627 0002023  85.2370  80.3927 15.14957944  5825
STARLINK-2493           
1 48150U 21027BL  26070.50003471  .01335451  00000+0  64492-1 0  9992
2 48150  53.0920 143.3326 0002029  83.5113  78.4837 15.15323507  5829
STARLINK-2503           
1 48151U 21027BM  26070.50003471  .00068220  00000+0  37007-2 0  9992
2 48151  53.0839 143.3650 0002328  66.4877  57.4552 15.13948530  5826
STARLINK-2567           
1 48276U 21036A   26070.33228750  .00002196  00000+0  16631-3 0  9991
2 48276  53.0566  39.2441 0001354 102.2366 257.8775 15.06394923269055
STARLINK-2569           
1 48277U 21036B   26070.50003471 -.00019546  00000+0 -78829-3 0  9998
2 48277  53.1280   2.6258 0001673 100.3618 200.5260 15.23860526  5714
STARLINK-2543           
1 48278U 21036C   26070.24550932  .00013671  00000+0  47314-3 0  9995
2 48278  53.1624  17.1758 0001165 119.0442 241.0676 15.30180521269352
STARLINK-2565           
1 48280U 21036E   26070.35716385  .00000383  00000+0  44589-4 0  9994
2 48280  53.0551  89.1332 0001353  92.6397 267.4747 15.06401375268350
STARLINK-2558           
1 48282U 21036G   26070.26563346 -.00000555  00000+0 -66157-5 0  9992
2 48282  53.1609  68.0565 0000972  79.5094 280.6016 15.30172248268655
STARLINK-2516           
1 48283U 21036H   26070.52264487  .00006855  00000+0  24336-3 0  9994
2 48283  53.1601  66.8564 0001320  91.1309 268.9843 15.30199042268692
STARLINK-2564           
1 48284U 21036J   26070.36365300  .00007045  00000+0  24975-3 0  9994
2 48284  53.1606  68.0012 0001728  82.1402 277.9795 15.30202489268658
STARLINK-2547           
1 48286U 21036L   26070.25718843  .00000102  00000+0  15555-4 0  9990
2 48286  53.1619  68.1723 0001462  91.3968 268.7201 15.30208938268642
STARLINK-2566           
1 48287U 21036M   26070.29674490  .00009719  00000+0  33983-3 0  9991
2 48287  53.1589  70.3645 0001183  81.7401 278.3734 15.30201210268613
STARLINK-2545           
1 48289U 21036P   26070.40049150  .00006617  00000+0  23529-3 0  9994
2 48289  53.1604  67.7296 0001184  90.0562 270.0575 15.30206824268660
